*******************************************************************************
 Revised: Jul 31, 2013              Venus                               299 / 2
 
 GEOPHYSICAL DATA (updated 2014-Mar-13):
  Mean radius (km)      =   6051.8(4+-1)  Density (g cm^-3)     =  5.204 
  Mass (10^23 kg )      =     48.685      Flattening, f         =  
  Volume (x10^10 km^3)  =     92.843      Semi-major axis       =  
  Sidereal rot. period  =   -243.0185 d   Rot. Rate (x10^5 s)   = -0.029924 
  Mean solar day        =    116.7490 d   Polar gravity ms^-2   =   
  Mom. of Inertia       =      0.33       Equ. gravity  ms^-2   =  8.870 
  Core radius (km)      =  ~3200          Potential Love # k2   = ~0.25 

  Grav spectral fact u  =      1.5        Topo. spectral fact t =  23       
  Fig. offset (Rcf-Rcm) =      0.19+-01   Offset (lat./long.)   = 11/102 dg/dg 
  GM (km^3 s^-2)        = 324858.63       Equatorial Radius, Re = 6051.893 km 
  GM 1-sigma (km^3 s^-2)=    +-0.04       Mass ratio (Sun/Venus)= 408523.72
  
  Atmos. pressure (bar) =    90           Max. angular diam.    =   60.2" 
  Mean Temperature (K)  =  735            Visual mag. V(1,0)    =   -4.40 
  Geometric albedo      =    0.65         Obliquity to orbit    =  177.3 deg 
  Sidereal orb. per.    =    0.61519726 y Orbit vel.  km/s      =   35.0214 
  Sidereal orb. per.    =  224.70079922 d Escape vel. km/s      =   10.361 
  Hill's sphere rad. Rp =  167.1          Planetary Solar Const = 2613.9 (Wm^2) 
*******************************************************************************
 
 
*******************************************************************************
Ephemeris / WWW_USER Wed Jan 24 11:47:17 2018 Pasadena, USA      / Horizons    
*******************************************************************************
Target body name: Venus (299)                     {source: DE431mx}
Center body name: Solar System Barycenter (0)     {source: DE431mx}
Center-site name: BODY CENTER
*******************************************************************************
Start time      : A.D. 2017-Jan-01 00:00:00.0000 TDB
Stop  time      : A.D. 2068-Jan-01 00:00:00.0000 TDB
Step-size       : 1440 minutes
*******************************************************************************
Center geodetic : 0.00000000,0.00000000,0.0000000 {E-lon(deg),Lat(deg),Alt(km)}
Center cylindric: 0.00000000,0.00000000,0.0000000 {E-lon(deg),Dxy(km),Dz(km)}
Center radii    : (undefined)                                                  
Output units    : KM-S                                                         
Output type     : GEOMETRIC cartesian states
Output format   : 2 (position and velocity)
Reference frame : ICRF/J2000.0                                                 
Coordinate systm: Ecliptic and Mean Equinox of Reference Epoch                 
*******************************************************************************
            JDTDB,            Calendar Date (TDB),                      X,                      Y,                      Z,                     VX,                     VY,                     VZ,
**************************************************************************************************************************************************************************************************
$$SOE
2466050.500000000, A.D. 2039-Sep-19 00:00:00.0000,  1.021389048836796E+08,  3.838807149631049E+07, -5.325171541072004E+06, -1.266458413847710E+01,  3.255347027815189E+01,  1.178910535541787E+00,
2466051.500000000, A.D. 2039-Sep-20 00:00:00.0000,  1.010055599010987E+08,  4.118525047692177E+07, -5.221269383904640E+06, -1.356863480330026E+01,  3.219182240110258E+01,  1.226080466102179E+00,
2466052.500000000, A.D. 2039-Sep-21 00:00:00.0000,  9.979453465261735E+07,  4.395009277648880E+07, -5.113331555326451E+06, -1.446262098812342E+01,  3.180497967163857E+01,  1.272322681602869E+00,
2466053.500000000, A.D. 2039-Sep-22 00:00:00.0000,  9.850672906203303E+07,  4.668043316506414E+07, -5.001439800945701E+06, -1.534584115811662E+01,  3.139321401691280E+01,  1.317600459958436E+00,
2466054.500000000, A.D. 2039-Sep-23 00:00:00.0000,  9.714310337926354E+07,  4.937413075714854E+07, -4.885679010925712E+06, -1.621760050231284E+01,  3.095681701767497E+01,  1.361877737655423E+00,
2466055.500000000, A.D. 2039-Sep-24 00:00:00.0000,  9.570467757551651E+07,  5.202907070409577E+07, -4.766137161784261E+06, -1.707721148654607E+01,  3.049609977450278E+01,  1.405119139807715E+00,
2466056.500000000, A.D. 2039-Sep-25 00:00:00.0000,  9.419253069070205E+07,  5.464316587427969E+07, -4.642905255606407E+06, -1.792399440592080E+01,  3.001139275825763E+01,  1.447290009968020E+00,
2466057.500000000, A.D. 2039-Sep-26 00:00:00.0000,  9.260780013314871E+07,  5.721435851965281E+07, -4.516077256693244E+06, -1.875727793635887E+01,  2.950304564459033E+01,  1.488356439666664E+00,
2466058.500000000, A.D. 2039-Sep-27 00:00:00.0000,  9.095168093172240E+07,  5.974062192731144E+07, -4.385750025671370E+06, -1.957639968475501E+01,  2.897142713233755E+01,  1.528285297648488E+00,
2466059.500000000, A.D. 2039-Sep-28 00:00:00.0000,  8.922542494048925E+07,  6.221996205466890E+07, -4.252023251090262E+06, -2.038070673725812E+01,  2.841692474566445E+01,  1.567044258777873E+00,
2466060.500000000, A.D. 2039-Sep-29 00:00:00.0000,  8.743033999610597E+07,  6.465041914682720E+07, -4.114999378537882E+06, -2.116955620518029E+01,  2.783994461982384E+01,  1.604601832581380E+00,
2466061.500000000, A.D. 2039-Sep-30 00:00:00.0000,  8.556778902816437E+07,  6.703006933472616E+07, -3.974783537306819E+06, -2.194231576802152E+01,  2.724091127041705E+01,  1.640927391396781E+00,
2466062.500000000, A.D. 2039-Oct-01 00:00:00.0000,  8.363918912276214E+07,  6.935702621264046E+07, -3.831483464646593E+06, -2.269836421308315E+01,  2.662026734605671E+01,  1.675991198096686E+00,
2466063.500000000, A.D. 2039-Oct-02 00:00:00.0000,  8.164601053961788E+07,  7.162944239358647E+07, -3.685209427640103E+06, -2.343709197112855E+01,  2.597847336434647E+01,  1.709764433354383E+00,
2466064.500000000, A.D. 2039-Oct-03 00:00:00.0000,  7.958977568309565E+07,  7.384551104119457E+07, -3.536074142745379E+06, -2.415790164753526E+01,  2.531600743110751E+01,  1.742219222418738E+00,
2466065.500000000, A.D. 2039-Oct-04 00:00:00.0000,  7.747205802755269E+07,  7.600346737659873E+07, -3.384192693046220E+06, -2.486020854839681E+01,  2.463336494286759E+01,  1.773328661367408E+00,
2466066.500000000, A.D. 2039-Oct-05 00:00:00.0000,  7.529448099746999E+07,  7.810159015889531E+07, -3.229682443258338E+06, -2.554344120097685E+01,  2.393105827249459E+01,  1.803066842801790E+00,
2466067.500000000, A.D. 2039-Oct-06 00:00:00.0000,  7.305871680288474E+07,  8.013820313771319E+07, -3.072662952541068E+06, -2.620704186790002E+01,  2.320961643804917E+01,  1.831408880949285E+00,
2466068.500000000, A.D. 2039-Oct-07 00:00:00.0000,  7.076648523068146E+07,  8.211167647644949E+07, -2.913255885166503E+06, -2.685046705459307E+01,  2.246958475487082E+01,  1.858330936145684E+00,
2466069.500000000, A.D. 2039-Oct-08 00:00:00.0000,  6.841955239236024E+07,  8.402042814472127E+07, -2.751584919101913E+06, -2.747318800924162E+01,  2.171152447091180E+01,  1.883810238654686E+00,
2466070.500000000, A.D. 2039-Oct-09 00:00:00.0000,  6.601972942895071E+07,  8.586292527858964E+07, -2.587775652563710E+06, -2.807469121472792E+01,  2.093601238541542E+01,  1.907825111795312E+00,
2466071.500000000, A.D. 2039-Oct-10 00:00:00.0000,  6.356887117379154E+07,  8.763768550712167E+07, -2.421955508604478E+06, -2.865447887192154E+01,  2.014364045102973E+01,  1.930354994342307E+00,
2466072.500000000, A.D. 2039-Oct-11 00:00:00.0000,  6.106887477394985E+07,  8.934327824386318E+07, -2.254253637797136E+06, -2.921206937369459E+01,  1.933501535947585E+01,  1.951380462164862E+00,
2466073.500000000, A.D. 2039-Oct-12 00:00:00.0000,  5.852167827110901E+07,  9.097832594180833E+07, -2.084800819083758E+06, -2.974699776903299E+01,  1.851075811091797E+01,  1.970883249069407E+00,
2466074.500000000, A.D. 2039-Oct-13 00:00:00.0000,  5.592925914280772E+07,  9.254150531046464E+07, -1.913729358859111E+06, -3.025881621661446E+01,  1.767150356720995E+01,  1.988846266812626E+00,
2466075.500000000, A.D. 2039-Oct-14 00:00:00.0000,  5.329363280496766E+07,  9.403154849362934E+07, -1.741172988362163E+06, -3.074709442722426E+01,  1.681789998922117E+01,  2.005253624251123E+00,
2466076.500000000, A.D. 2039-Oct-15 00:00:00.0000,  5.061685107670127E+07,  9.544724420651105E+07, -1.567266759451535E+06, -3.121142009437885E+01,  1.595060855847226E+01,  2.020090645594638E+00,
2466077.500000000, A.D. 2039-Oct-16 00:00:00.0000,  4.790100060844576E+07,  9.678743883085218E+07, -1.392146938843787E+06, -3.165139931252772E+01,  1.507030288333922E+01,  2.033343887730020E+00,
2466078.500000000, A.D. 2039-Oct-17 00:00:00.0000,  4.514820127452380E+07,  9.805103746673094E+07, -1.215950900896251E+06, -3.206665698220301E+01,  1.417766849011221E+01,  2.045001156583537E+00,
2466079.500000000, A.D. 2039-Oct-18 00:00:00.0000,  4.236060453128579E+07,  9.923700493974766E+07, -1.038817019018762E+06, -3.245683720148656E+01,  1.327340229922325E+01,  2.055051522489516E+00,
2466080.500000000, A.D. 2039-Oct-19 00:00:00.0000,  3.954039174204323E+07,  1.003443667623289E+08, -8.608845558017641E+05, -3.282160364316331E+01,  1.235821208698483E+01,  2.063485334533585E+00,
2466081.500000000, A.D. 2039-Oct-20 00:00:00.0000,  3.668977247005452E+07,  1.013722100479140E+08, -6.822935519502684E+05, -3.316063991702458E+01,  1.143281593324034E+01,  2.070294233845245E+00,
2466082.500000000, A.D. 2039-Oct-21 00:00:00.0000,  3.381098274087257E+07,  1.023196843768219E+08, -5.031847141159773E+05, -3.347364991660081E+01,  1.049794165527072E+01,  2.075471165802609E+00,
2466083.500000000, A.D. 2039-Oct-22 00:00:00.0000,  3.090628327543128E+07,  1.031860026126341E+08, -3.236993017230630E+05, -3.376035814978155E+01,  9.554326228482994E+00,  2.079010391125644E+00,
